NORAD_CAT_ID,OBJECT_NAME,OBJECT_TYPE,EPOCH,MEAN_MOTION,ECCENTRICITY,INCLINATION,RA_OF_ASC_NODE,ARG_OF_PERICENTER,MEAN_ANOMALY,BSTAR,MEAN_MOTION_DOT,MEAN_MOTION_DDOT,TLE_LINE0,TLE_LINE1,TLE_LINE2,SEMIMAJOR_AXIS,PERIOD,APOGEE,PERIGEE,DECAYED
52852.0,STARLINK-4184,PAYLOAD,2022-11-19 14:40:16,15.08848237,0.0002829,53.2185,38.4146,24.7247,335.3880000000001,0.00014379,2.001e-05,0.0,0 STARLINK-4184,1 52852U 22062Y   22323.61130770  .00002001  00000-0  14379-3 0  9991,2 52852  53.2185  38.4146 0002829  24.7247 335.3880 15.08848237 24339,6917.855,95.437,541.677,537.763,0.0
52852.0,STARLINK-4184,PAYLOAD,2022-11-20 03:23:22,15.08841164,0.0002802,53.2183,36.0358,25.8724,334.2408,0.00012809,1.751e-05,0.0,0 STARLINK-4184,1 52852U 22062Y   22324.14122927  .00001751  00000-0  12809-3 0  9992,2 52852  53.2183  36.0358 0002802  25.8724 334.2408 15.08841164 24414,6917.877,95.437,541.68,537.803,0.0
52852.0,STARLINK-4184,PAYLOAD,2022-11-20 11:20:17,15.08848236,0.0002653,53.2186,34.5491,28.4669,331.6468,0.00012953,1.774e-05,0.0,0 STARLINK-4184,1 52852U 22062Y   22324.47242342  .00001774  00000-0  12953-3 0  9997,2 52852  53.2186  34.5491 0002653  28.4669 331.6468 15.08848236 23973,6917.855,95.437,541.556,537.885,0.0
52852.0,STARLINK-4184,PAYLOAD,2022-11-21 00:03:23,15.08835448,0.000274,53.219,32.1701,27.5933,332.5204,-3.5455e-06,-3.45e-06,0.0,0 STARLINK-4184,1 52852U 22062Y   22325.00235360 -.00000345  00000-0 -35455-5 0  9998,2 52852  53.2190  32.1701 0002740  27.5933 332.5204 15.08835448 24540,6917.894,95.438,541.655,537.864,0.0
52852.0,STARLINK-4184,PAYLOAD,2022-11-21 11:11:05,15.0883407,0.000253,53.2191,30.0893,30.7085,329.4055,3.2929000000000007e-06,-2.36e-06,0.0,0 STARLINK-4184,1 52852U 22062Y   22325.46603493 -.00000236  00000-0  32929-5 0  9995,2 52852  53.2191  30.0893 0002530  30.7085 329.4055 15.08834070 24124,6917.899,95.438,541.514,538.013,0.0
52852.0,STARLINK-4184,PAYLOAD,2022-11-22 11:01:51,15.08846259,0.0002935,53.2188,25.6292,27.3563,332.7584,9.9669e-05,1.298e-05,0.0,0 STARLINK-4184,1 52852U 22062Y   22326.45962505  .00001298  00000-0  99669-4 0  9998,2 52852  53.2188  25.6292 0002935  27.3563 332.7584 15.08846259 24761,6917.861,95.437,541.757,537.696,0.0
52852.0,STARLINK-4184,PAYLOAD,2022-11-22 23:44:57,15.088350699999998,0.0003125,53.2203,23.2565,30.8078,329.3097,9.3338e-05,1.197e-05,0.0,0 STARLINK-4184,1 52852U 22062Y   22326.98955274  .00001197  00000-0  93338-4 0  9996,2 52852  53.2203  23.2565 0003125  30.8078 329.3097 15.08835070 24847,6917.895,95.438,541.922,537.599,0.0
52852.0,STARLINK-4184,PAYLOAD,2022-11-23 10:52:40,15.0882681,0.0002838,53.2195,21.1707,30.3314,329.7842,2.3892e-05,9.2e-07,0.0,0 STARLINK-4184,1 52852U 22062Y   22327.45324249  .00000092  00000-0  23892-4 0  9992,2 52852  53.2195  21.1707 0002838  30.3314 329.7842 15.08826810 24912,6917.920999999999,95.438,541.749,537.822,0.0
52852.0,STARLINK-4184,PAYLOAD,2022-11-24 04:21:54,15.08843159,0.0003035,53.2185,17.8972,27.5116,332.6037,1.815e-05,0.0,0.0,0 STARLINK-4184,1 52852U 22062Y   22328.18187595  .00000000  00000-0  18150-4 0  9994,2 52852  53.2185  17.8972 0003035  27.5116 332.6037 15.08843159 25022,6917.871,95.437,541.835,537.636,0.0
52852.0,STARLINK-4184,PAYLOAD,2022-11-24 10:43:26,15.0884304,0.0002989,53.2199,16.709,27.4458,332.6692,1.3169e-05,-7.9e-07,0.0,0 STARLINK-4184,1 52852U 22062Y   22328.44683584 -.00000079  00000-0  13169-4 0  9994,2 52852  53.2199  16.7090 0002989  27.4458 332.6692 15.08843040 24576,6917.871,95.437,541.804,537.668,0.0
52852.0,STARLINK-4184,PAYLOAD,2022-11-24 20:15:46,15.08833025,0.0002942,53.2186,14.9263,30.7993,329.3171,6.6484000000000014e-06,-1.83e-06,0.0,0 STARLINK-4184,1 52852U 22062Y   22328.84428383 -.00000183  00000-0  66484-5 0  9997,2 52852  53.2186  14.9263 0002942  30.7993 329.3171 15.08833025 25123,6917.901999999999,95.438,541.802,537.731,0.0
52852.0,STARLINK-4184,PAYLOAD,2022-11-25 12:09:36,15.08843268,0.0003033,53.2186,11.95,28.5404,331.5753,0.00018069,2.589e-05,0.0,0 STARLINK-4184,1 52852U 22062Y   22329.50667794  .00002589  00000-0  18069-3 0  9997,2 52852  53.2186  11.9500 0003033  28.5404 331.5753 15.08843268 25220,6917.87,95.437,541.8340000000002,537.637,0.0
52852.0,STARLINK-4184,PAYLOAD,2022-11-25 20:06:32,15.08851689,0.0003039,53.2187,10.4632,28.1116,332.004,0.00023163,3.401e-05,0.0,0 STARLINK-4184,1 52852U 22062Y   22329.83787203  .00003401  00000-0  23163-3 0  9996,2 52852  53.2187  10.4632 0003039  28.1116 332.0040 15.08851689 24784,6917.845,95.437,541.812,537.607,0.0
52852.0,STARLINK-4184,PAYLOAD,2022-11-26 08:49:37,15.08859357,0.000308,53.2172,8.0851,29.269,330.8474,0.00041099,6.262e-05,0.0,0 STARLINK-4184,1 52852U 22062Y   22330.36778963  .00006262  00000-0  41099-3 0  9995,2 52852  53.2172   8.0851 0003080  29.2690 330.8474 15.08859357 25350,6917.821,95.436,541.817,537.556,0.0
52852.0,STARLINK-4184,PAYLOAD,2022-11-26 10:25:00,15.08849857,0.0003039,53.2175,7.7878,29.3007,330.8155,0.00022405,3.28e-05,0.0,0 STARLINK-4184,1 52852U 22062Y   22330.43403437  .00003280  00000-0  22405-3 0  9991,2 52852  53.2175   7.7878 0003039  29.3007 330.8155 15.08849857 24871,6917.85,95.437,541.818,537.613,0.0
52852.0,STARLINK-4184,PAYLOAD,2022-11-26 19:57:18,15.08858087,0.0003078999999999,53.2174,6.0036,30.1567,329.9601,0.00037795,5.735e-05,0.0,0 STARLINK-4184,1 52852U 22062Y   22330.83146928  .00005735  00000-0  37795-3 0  9999,2 52852  53.2174   6.0036 0003079  30.1567 329.9601 15.08858087 25425,6917.825,95.436,541.82,537.56,0.0
52852.0,STARLINK-4184,PAYLOAD,2022-11-27 03:54:14,15.08845203,0.0003478999999999,53.2173,4.5172,23.8379,336.2774,6.3944e-06,-1.87e-06,0.0,0 STARLINK-4184,1 52852U 22062Y   22331.16267121 -.00000187  00000-0  63944-5 0  9999,2 52852  53.2173   4.5172 0003479  23.8379 336.2774 15.08845203 25475,6917.864000000001,95.437,542.136,537.323,0.0
52852.0,STARLINK-4184,PAYLOAD,2022-11-27 08:40:24,15.08835959,0.0003056,53.2172,3.6261,25.7632,334.3512,-0.00020264,-3.512e-05,0.0,0 STARLINK-4184,1 52852U 22062Y   22331.36139161 -.00003512  00000-0 -20264-3 0  9995,2 52852  53.2172   3.6261 0003056  25.7632 334.3512 15.08835959 25013,6917.893,95.438,541.872,537.644,0.0
52852.0,STARLINK-4184,PAYLOAD,2022-11-28 11:41:58,15.08833304,0.000305,53.2178,358.5688,28.6587,331.4572,0.00016513,2.34e-05,0.0,0 STARLINK-4184,1 52852U 22062Y   22332.48747904  .00002340  00000-0  16513-3 0  9997,2 52852  53.2178 358.5688 0003050  28.6587 331.4572 15.08833304 25677,6917.901,95.438,541.876,537.656,0.0
52852.0,STARLINK-4184,PAYLOAD,2022-11-29 08:21:58,15.08848446,0.0003221,53.2179,354.7042,29.8703,330.2472,0.00044024,6.727e-05,0.0,0 STARLINK-4184,1 52852U 22062Y   22333.34859737  .00006727  00000-0  44024-3 0  9992,2 52852  53.2179 354.7042 0003221  29.8703 330.2472 15.08848446 25807,6917.855,95.437,541.948,537.491,0.0
52852.0,STARLINK-4184,PAYLOAD,2022-11-30 01:51:13,15.08839222,0.0003269,53.2177,351.4331,30.6391,329.4791,0.00011975,1.618e-05,0.0,0 STARLINK-4184,1 52852U 22062Y   22334.07724125  .00001618  00000-0  11975-3 0  9998,2 52852  53.2177 351.4331 0003269  30.6391 329.4791 15.08839222 25913,6917.8830000000025,95.438,542.009,537.486,0.0
52852.0,STARLINK-4184,PAYLOAD,2022-11-30 09:48:09,15.08828898,0.0003246,53.2177,349.9465,32.3131,327.8059,-8.6976e-05,-1.672e-05,0.0,0 STARLINK-4184,1 52852U 22062Y   22334.40844624 -.00001672  00000-0 -86976-4 0  9998,2 52852  53.2177 349.9465 0003246  32.3131 327.8059 15.08828898 25960,6917.9140000000025,95.438,542.025,537.534,0.0
52852.0,STARLINK-4184,PAYLOAD,2022-11-30 11:23:32,15.08833444,0.0003166,53.2187,349.6482,24.7188,335.3955,8.2974e-06,-1.57e-06,0.0,0 STARLINK-4184,1 52852U 22062Y   22334.47468475 -.00000157  00000-0  82974-5 0  9992,2 52852  53.2187 349.6482 0003166  24.7188 335.3955 15.08833444 25484,6917.9,95.438,541.956,537.575,0.0
52852.0,STARLINK-4184,PAYLOAD,2022-11-30 17:45:05,15.08835226,0.0003146,53.2179,348.4598,29.0989,331.0178,9.4683e-05,1.218e-05,0.0,0 STARLINK-4184,1 52852U 22062Y   22334.73964592  .00001218  00000-0  94683-4 0  9999,2 52852  53.2179 348.4598 0003146  29.0989 331.0178 15.08835226 25520,6917.895,95.438,541.936,537.5840000000002,0.0
52852.0,STARLINK-4184,PAYLOAD,2022-12-01 01:42:00,15.08841908,0.0003153,53.2179,346.9725,28.3111,331.8052,0.00017041,2.425e-05,0.0,0 STARLINK-4184,1 52852U 22062Y   22335.07084356  .00002425  00000-0  17041-3 0  9991,2 52852  53.2179 346.9725 0003153  28.3111 331.8052 15.08841908 26065,6917.875,95.437,541.9209999999998,537.558,0.0
52852.0,STARLINK-4184,PAYLOAD,2022-12-01 11:14:19,15.08851531,0.0003228,53.2182,345.1888,28.9265,331.1906,0.00069599,0.0001081,0.0,0 STARLINK-4184,1 52852U 22062Y   22335.46828319  .00010810  00000-0  69599-3 0  9991,2 52852  53.2182 345.1888 0003228  28.9265 331.1906 15.08851531 25635,6917.845,95.437,541.943,537.477,0.0
52852.0,STARLINK-4184,PAYLOAD,2022-12-01 17:35:52,15.08839719,0.0003288,53.2179,343.9986,33.1699,326.9499,0.00031513,4.731e-05,0.0,0 STARLINK-4184,1 52852U 22062Y   22335.73324599  .00004731  00000-0  31513-3 0  9992,2 52852  53.2179 343.9986 0003288  33.1699 326.9499 15.08839719 25678,6917.880999999999,95.438,542.021,537.472,0.0
52852.0,STARLINK-4184,PAYLOAD,2022-12-02 09:29:43,15.08852939,0.0003333,53.2178,341.0248,30.0744,330.0439,0.00038201,5.799e-05,0.0,0 STARLINK-4184,1 52852U 22062Y   22336.39564076  .00005799  00000-0  38201-3 0  9997,2 52852  53.2178 341.0248 0003333  30.0744 330.0439 15.08852939 26260,6917.840999999999,95.437,542.012,537.4,0.0
52852.0,STARLINK-4184,PAYLOAD,2022-12-02 17:26:39,15.08840883,0.0003517,53.2175,339.539,36.0799,324.043,1.6811e-05,-2.1e-07,0.0,0 STARLINK-4184,1 52852U 22062Y   22336.72684327 -.00000021  00000-0  16811-4 0  9994,2 52852  53.2175 339.5390 0003517  36.0799 324.0430 15.08840883 26312,6917.878000000002,95.437,542.1759999999998,537.31,0.0
